{"type":"FeatureCollection","features":[{"type":"Feature","properties":{"name":"Cross River","zone":"South South"},"geometry":{"type":"Polygon","coordinates":[[[8.274,4.855],[8.332,4.822],[8.332,4.805],[8.363,4.78],[8.397,4.781],[8.385,4.753],[8.397,4.735],[8.431,4.727],[8.461,4.755],[8.482,4.73],[8.466,4.728],[8.454,4.699],[8.509,4.694],[8.503,4.708],[8.532,4.71],[8.522,4.734],[8.545,4.803],[8.588,4.801],[8.628,4.822],[8.604,4.883],[8.652,4.915],[8.651,4.943],[8.698,4.985],[8.685,5.0],[8.725,5.044],[8.729,5.075],[8.816,5.16],[8.86,5.497],[8.922,5.595],[8.851,5.722],[8.865,5.842],[8.934,5.903],[8.963,5.907],[9.223,6.151],[9.363,6.326],[9.435,6.328],[9.467,6.401],[9.471,6.525],[9.3,6.72],[9.136,6.68],[9.07,6.642],[9.035,6.647],[8.992,6.692],[8.969,6.694],[8.995,6.754],[8.974,6.789],[8.848,6.866],[8.704,6.896],[8.665,6.868],[8.601,6.856],[8.642,6.819],[8.621,6.781],[8.469,6.746],[8.42,6.757],[8.361,6.693],[8.295,6.679],[8.322,6.634],[8.325,6.589],[8.374,6.564],[8.375,6.546],[8.391,6.55],[8.391,6.523],[8.419,6.515],[8.406,6.485],[8.439,6.447],[8.432,6.433],[8.457,6.428],[8.445,6.386],[8.399,6.354],[8.392,6.307],[8.418,6.261],[8.401,6.217],[8.302,6.108],[8.274,5.999],[8.245,6.018],[8.215,6.012],[8.114,5.938],[8.101,5.961],[8.05,5.951],[8.041,5.998],[7.98,5.975],[7.982,5.927],[8.006,5.904],[7.989,5.902],[7.959,5.843],[7.932,5.83],[7.97,5.768],[7.922,5.76],[7.887,5.7],[7.918,5.65],[7.908,5.536],[7.988,5.363],[7.88,5.367],[7.902,5.336],[7.841,5.337],[7.863,5.315],[7.913,5.304],[7.976,5.208],[7.993,5.207],[8.017,5.247],[8.042,5.235],[8.065,5.199],[8.065,5.145],[8.099,5.107],[8.1,5.033],[8.126,4.982],[8.184,4.965],[8.23,4.931],[8.274,4.855]]]}},{"type":"Feature","properties":{"name":"FCT","zone":"North Central"},"geometry":{"type":"Polygon","coordinates":[[[6.981,8.444],[7.08,8.443],[7.084,8.419],[7.124,8.423],[7.141,8.435],[7.133,8.449],[7.365,8.488],[7.496,8.654],[7.592,8.835],[7.589,9.129],[7.668,9.304],[7.724,9.329],[7.693,9.349],[7.667,9.401],[7.614,9.406],[7.542,9.387],[7.509,9.355],[7.379,9.336],[7.22,9.114],[7.015,9.269],[6.788,9.27],[6.785,8.458],[6.941,8.459],[6.981,8.444]]]}},{"type":"Feature","properties":{"name":"Ogun","zone":"South West"},"geometry":{"type":"Polygon","coordinates":[[[4.483,6.326],[4.488,6.336],[4.572,6.297],[4.595,6.332],[4.598,6.366],[4.582,6.378],[4.473,6.393],[4.504,6.416],[4.535,6.408],[4.56,6.451],[4.564,6.499],[4.605,6.492],[4.588,6.532],[4.601,6.618],[4.587,6.641],[4.565,6.634],[4.497,6.505],[4.458,6.603],[4.387,6.63],[4.376,6.663],[4.422,6.762],[4.547,6.841],[4.562,6.988],[4.61,7.031],[4.516,7.023],[4.489,6.992],[4.425,7.002],[4.39,6.981],[4.374,6.999],[4.369,7.059],[4.298,7.091],[4.198,7.049],[4.169,7.174],[4.085,7.132],[3.998,7.126],[3.939,7.084],[3.731,7.081],[3.727,7.097],[3.794,7.139],[3.764,7.23],[3.762,7.301],[3.714,7.305],[3.72,7.387],[3.693,7.388],[3.707,7.447],[3.541,7.44],[3.474,7.389],[3.483,7.417],[3.446,7.494],[3.393,7.456],[3.386,7.401],[3.319,7.314],[3.287,7.325],[3.249,7.367],[3.155,7.378],[3.083,7.439],[3.064,7.52],[3.007,7.556],[2.973,7.606],[2.998,7.641],[2.989,7.682],[3.014,7.704],[3.028,7.805],[2.987,7.855],[2.961,7.744],[2.92,7.708],[2.917,7.758],[2.886,7.769],[2.881,7.857],[2.895,7.902],[2.931,7.928],[2.849,7.931],[2.822,7.951],[2.794,7.942],[2.785,7.913],[2.712,7.852],[2.743,7.796],[2.717,7.599],[2.75,7.094],[2.737,7.024],[2.703,6.989],[2.703,6.964],[2.751,6.868],[2.724,6.782],[2.787,6.75],[2.78,6.695],[2.728,6.624],[2.743,6.563],[2.702,6.512],[2.714,6.48],[2.705,6.46],[2.858,6.449],[2.86,6.467],[2.889,6.481],[2.886,6.511],[3.077,6.492],[3.16,6.508],[3.201,6.533],[3.193,6.578],[3.238,6.62],[3.238,6.661],[3.263,6.7],[3.345,6.673],[3.353,6.652],[3.393,6.638],[3.452,6.641],[3.443,6.686],[3.459,6.674],[3.979,6.692],[4.091,6.68],[4.093,6.646],[4.059,6.634],[4.054,6.615],[4.07,6.573],[4.099,6.572],[4.11,6.554],[4.178,6.604],[4.222,6.596],[4.241,6.572],[4.233,6.547],[4.164,6.507],[4.169,6.488],[4.225,6.473],[4.26,6.444],[4.276,6.456],[4.354,6.451],[4.369,6.438],[4.36,6.368],[4.483,6.326]]]}},{"type":"Feature","properties":{"name":"Oyo","zone":"South West"},"geometry":{"type":"Polygon","coordinates":[[[4.088,7.133],[4.071,7.139],[4.085,7.151],[4.073,7.167],[4.094,7.228],[4.125,7.258],[4.131,7.3],[4.111,7.327],[4.132,7.358],[4.134,7.465],[4.155,7.509],[4.139,7.599],[4.093,7.621],[4.053,7.675],[4.074,7.682],[4.061,7.754],[4.09,7.86],[4.147,7.85],[4.197,7.865],[4.191,7.91],[4.234,7.931],[4.236,7.956],[4.276,7.971],[4.328,7.935],[4.371,7.849],[4.397,7.897],[4.433,7.892],[4.45,7.938],[4.55,7.971],[4.569,8.055],[4.506,8.092],[4.48,8.211],[4.392,8.304],[4.209,8.681],[4.19,8.753],[4.195,8.816],[4.221,8.861],[4.321,8.942],[4.335,8.981],[4.316,8.998],[4.253,8.967],[4.21,8.97],[4.012,9.035],[3.991,9.048],[3.921,9.173],[3.863,9.188],[3.771,9.147],[3.743,9.047],[3.691,8.997],[3.596,8.999],[3.6,8.957],[3.525,8.929],[3.388,8.842],[3.237,8.783],[3.164,8.809],[3.104,8.75],[3.014,8.71],[2.921,8.612],[2.802,8.61],[2.756,8.575],[2.758,8.491],[2.721,8.424],[2.709,8.339],[2.754,8.207],[2.693,7.906],[2.712,7.852],[2.785,7.913],[2.802,7.949],[2.872,7.927],[2.931,7.928],[2.888,7.89],[2.886,7.769],[2.917,7.758],[2.923,7.709],[2.961,7.744],[2.987,7.855],[3.011,7.83],[3.033,7.796],[3.03,7.756],[3.005,7.712],[3.014,7.704],[2.989,7.682],[2.998,7.641],[2.973,7.606],[3.007,7.556],[3.064,7.52],[3.083,7.439],[3.155,7.378],[3.249,7.367],[3.287,7.325],[3.319,7.314],[3.386,7.401],[3.393,7.456],[3.446,7.494],[3.483,7.417],[3.474,7.389],[3.541,7.44],[3.707,7.447],[3.693,7.388],[3.72,7.387],[3.714,7.305],[3.762,7.301],[3.764,7.23],[3.794,7.139],[3.727,7.097],[3.728,7.084],[3.939,7.084],[3.998,7.126],[4.088,7.133]]]}},{"type":"Feature","properties":{"name":"Sokoto","zone":"North West"},"geometry":{"type":"Polygon","coordinates":[[[4.126,13.25],[4.3,13.26],[4.374,13.201],[4.471,13.179],[4.623,13.07],[4.702,13.073],[4.732,13.053],[4.646,12.949],[4.694,12.933],[4.807,12.819],[4.806,12.804],[4.77,12.789],[4.73,12.702],[4.732,12.672],[4.795,12.575],[4.796,12.512],[4.812,12.504],[4.757,12.45],[4.754,12.364],[4.709,12.365],[4.691,12.4],[4.63,12.433],[4.588,12.396],[4.593,12.347],[4.549,12.301],[4.549,12.251],[4.521,12.251],[4.562,12.23],[4.552,12.098],[4.588,12.039],[4.551,11.892],[4.549,11.796],[4.436,11.711],[4.417,11.709],[4.394,11.757],[4.378,11.763],[4.381,11.74],[4.369,11.747],[4.375,11.715],[4.427,11.671],[4.419,11.614],[4.497,11.552],[4.483,11.532],[4.523,11.53],[4.57,11.574],[4.547,11.597],[4.546,11.634],[4.57,11.633],[4.586,11.655],[4.623,11.657],[4.635,11.672],[4.667,11.668],[4.662,11.694],[4.677,11.682],[4.721,11.695],[4.815,11.766],[4.85,11.735],[4.889,11.75],[4.894,11.709],[4.943,11.727],[4.92,11.79],[4.935,11.845],[4.968,11.876],[4.867,11.933],[4.861,12.048],[4.875,12.118],[4.862,12.16],[4.875,12.23],[4.95,12.231],[4.953,12.314],[5.117,12.283],[5.16,12.316],[5.312,12.356],[5.385,12.324],[5.422,12.353],[5.476,12.252],[5.541,12.273],[5.567,12.352],[5.653,12.348],[5.692,12.322],[5.751,12.324],[5.773,12.383],[5.717,12.487],[5.723,12.621],[5.677,12.632],[5.694,12.689],[5.686,12.714],[5.649,12.769],[5.588,12.804],[5.635,12.883],[5.734,12.827],[5.813,12.84],[5.848,12.811],[5.883,12.82],[5.962,12.755],[6.024,12.749],[6.034,12.784],[6.006,12.919],[6.049,12.948],[6.047,13.031],[6.191,13.101],[6.229,13.135],[6.261,13.136],[6.258,13.16],[6.3,13.182],[6.356,13.164],[6.369,13.149],[6.359,13.137],[6.403,13.129],[6.449,13.158],[6.466,13.131],[6.452,13.117],[6.509,13.132],[6.525,13.058],[6.581,13.023],[6.683,13.107],[6.688,13.133],[6.743,13.118],[6.793,13.132],[6.753,13.207],[6.735,13.282],[6.495,13.568],[6.462,13.59],[6.296,13.679],[6.156,13.645],[5.53,13.886],[5.35,13.834],[5.281,13.756],[5.248,13.743],[5.078,13.752],[4.95,13.734],[4.909,13.746],[4.874,13.781],[4.708,13.759],[4.637,13.723],[4.394,13.653],[4.232,13.499],[4.126,13.468],[4.126,13.25]]]}},{"type":"Feature","properties":{"name":"Zamfara","zone":"North West"},"geometry":{"type":"Polygon","coordinates":[[[4.941,11.731],[5.007,11.75],[5.03,11.72],[5.063,11.708],[5.081,11.732],[5.134,11.728],[5.177,11.744],[5.184,11.766],[5.166,11.78],[5.178,11.792],[5.238,11.756],[5.271,11.78],[5.288,11.769],[5.31,11.794],[5.318,11.778],[5.296,11.755],[5.328,11.772],[5.35,11.709],[5.44,11.709],[5.461,11.671],[5.497,11.656],[5.564,11.684],[5.67,11.661],[5.705,11.688],[5.78,11.684],[5.829,11.625],[5.816,11.515],[5.835,11.435],[5.934,11.437],[5.968,11.467],[6.01,11.463],[6.053,11.402],[6.08,11.388],[6.204,11.384],[6.175,11.359],[6.191,11.334],[6.136,11.295],[6.109,11.238],[6.117,11.207],[6.106,11.183],[6.047,11.163],[6.07,11.227],[6.059,11.23],[6.025,11.172],[6.014,11.13],[6.046,11.054],[6.12,11.06],[6.28,10.964],[6.329,11.027],[6.365,11.018],[6.404,11.033],[6.437,11.008],[6.511,11.044],[6.533,11.048],[6.577,11.022],[6.603,11.046],[6.675,11.056],[6.687,11.092],[6.716,11.106],[6.691,11.121],[6.685,11.152],[6.703,11.239],[6.764,11.267],[6.774,11.322],[6.836,11.31],[6.833,11.352],[6.889,11.384],[6.904,11.553],[6.857,11.589],[6.852,11.621],[6.901,11.798],[6.917,11.786],[7.017,11.816],[7.06,11.79],[7.075,11.817],[7.142,11.849],[7.141,11.911],[7.2,11.901],[7.247,11.933],[7.22,11.95],[7.211,11.985],[7.154,12.026],[7.13,12.068],[7.136,12.086],[7.117,12.094],[7.157,12.185],[7.15,12.232],[7.093,12.283],[7.044,12.659],[6.989,12.673],[7.061,12.74],[7.056,12.823],[7.069,12.832],[7.051,12.995],[6.933,12.997],[6.793,13.132],[6.743,13.118],[6.688,13.133],[6.683,13.107],[6.581,13.023],[6.56,13.028],[6.525,13.058],[6.509,13.132],[6.452,13.117],[6.466,13.131],[6.449,13.158],[6.403,13.129],[6.359,13.137],[6.369,13.149],[6.356,13.164],[6.3,13.182],[6.258,13.16],[6.261,13.136],[6.229,13.135],[6.191,13.101],[6.047,13.031],[6.049,12.948],[6.006,12.919],[6.034,12.784],[6.024,12.749],[5.962,12.755],[5.883,12.82],[5.848,12.811],[5.813,12.84],[5.734,12.827],[5.635,12.883],[5.588,12.804],[5.649,12.769],[5.686,12.714],[5.694,12.689],[5.677,12.632],[5.723,12.621],[5.717,12.487],[5.773,12.383],[5.755,12.331],[5.692,12.322],[5.653,12.348],[5.567,12.352],[5.541,12.273],[5.476,12.252],[5.422,12.353],[5.385,12.324],[5.312,12.356],[5.16,12.316],[5.117,12.283],[4.953,12.314],[4.95,12.231],[4.875,12.23],[4.862,12.16],[4.875,12.118],[4.861,12.048],[4.867,11.933],[4.968,11.876],[4.935,11.845],[4.92,11.79],[4.941,11.731]]]}},{"type":"Feature","properties":{"name":"Lagos","zone":"South West"},"geometry":{"type":"Polygon","coordinates":[[[2.705,6.46],[2.706,6.375],[2.925,6.395],[3.402,6.399],[3.43,6.424],[3.86,6.436],[4.36,6.368],[4.369,6.438],[4.285,6.456],[4.26,6.444],[4.225,6.473],[4.173,6.484],[4.164,6.507],[4.233,6.547],[4.241,6.572],[4.222,6.596],[4.178,6.604],[4.11,6.554],[4.099,6.572],[4.07,6.573],[4.054,6.615],[4.059,6.634],[4.093,6.646],[4.091,6.68],[3.979,6.692],[3.459,6.674],[3.443,6.686],[3.452,6.641],[3.393,6.638],[3.353,6.652],[3.345,6.673],[3.263,6.7],[3.238,6.661],[3.238,6.62],[3.193,6.578],[3.201,6.533],[3.16,6.508],[3.077,6.492],[2.886,6.511],[2.889,6.481],[2.86,6.467],[2.858,6.449],[2.705,6.46]]]}},{"type":"Feature","properties":{"name":"Akwa Ibom","zone":"South South"},"geometry":{"type":"Polygon","coordinates":[[[7.902,5.336],[7.865,5.418],[7.793,5.44],[7.757,5.51],[7.696,5.518],[7.7,5.432],[7.657,5.446],[7.622,5.388],[7.625,5.365],[7.661,5.367],[7.665,5.344],[7.645,5.324],[7.572,5.324],[7.535,5.304],[7.553,5.276],[7.528,5.156],[7.547,5.088],[7.519,5.053],[7.533,5.042],[7.46,4.978],[7.491,4.959],[7.481,4.883],[7.542,4.73],[7.523,4.631],[7.547,4.585],[7.528,4.55],[7.597,4.497],[7.606,4.47],[7.77,4.513],[8.027,4.543],[8.292,4.537],[8.344,4.607],[8.302,4.817],[8.245,4.887],[8.23,4.931],[8.184,4.965],[8.126,4.982],[8.1,5.033],[8.099,5.107],[8.065,5.145],[8.065,5.199],[8.042,5.235],[8.017,5.247],[7.993,5.207],[7.976,5.208],[7.913,5.304],[7.863,5.315],[7.843,5.335],[7.902,5.336]]]}},{"type":"Feature","properties":{"name":"Bayelsa","zone":"South South"},"geometry":{"type":"Polygon","coordinates":[[[5.448,5.134],[5.375,5.126],[5.442,4.976],[5.444,4.923],[5.542,4.73],[5.7,4.517],[5.843,4.402],[5.964,4.334],[5.977,4.312],[6.088,4.27],[6.22,4.279],[6.215,4.336],[6.242,4.401],[6.241,4.36],[6.27,4.391],[6.282,4.375],[6.26,4.358],[6.239,4.293],[6.431,4.31],[6.453,4.299],[6.465,4.315],[6.549,4.325],[6.545,4.355],[6.514,4.369],[6.513,4.432],[6.55,4.51],[6.545,4.533],[6.566,4.554],[6.543,4.568],[6.549,4.586],[6.512,4.643],[6.607,4.746],[6.537,4.756],[6.461,4.713],[6.441,4.745],[6.445,4.776],[6.43,4.766],[6.423,4.777],[6.398,4.864],[6.441,4.943],[6.412,5.005],[6.493,5.163],[6.559,5.198],[6.549,5.213],[6.567,5.237],[6.531,5.285],[6.563,5.32],[6.562,5.379],[6.485,5.379],[6.503,5.339],[6.49,5.324],[6.45,5.328],[6.409,5.305],[6.339,5.32],[6.306,5.303],[6.284,5.275],[6.29,5.234],[6.213,5.239],[6.196,5.223],[6.191,5.159],[6.166,5.161],[6.13,5.129],[6.086,5.151],[6.055,5.097],[6.005,5.104],[5.961,5.157],[5.933,5.165],[5.915,5.108],[5.881,5.11],[5.868,5.068],[5.791,5.086],[5.779,5.058],[5.736,5.057],[5.71,5.024],[5.667,5.028],[5.648,5.012],[5.585,5.055],[5.533,5.063],[5.503,5.092],[5.468,5.093],[5.469,5.117],[5.448,5.134]]]}},{"type":"Feature","properties":{"name":"Ondo","zone":"South West"},"geometry":{"type":"Polygon","coordinates":[[[4.483,6.326],[4.75,6.121],[4.977,5.888],[4.985,5.896],[5.138,6.173],[5.122,6.206],[5.096,6.197],[5.076,6.213],[5.073,6.24],[5.016,6.292],[5.035,6.328],[5.029,6.364],[5.104,6.402],[5.103,6.441],[5.153,6.498],[5.164,6.554],[5.114,6.621],[5.118,6.684],[5.151,6.746],[5.197,6.774],[5.255,6.883],[5.555,6.883],[5.571,6.845],[5.544,6.813],[5.577,6.704],[5.629,6.746],[5.667,6.728],[5.703,6.736],[5.771,6.797],[5.77,6.84],[5.8,6.921],[5.786,6.968],[5.793,7.022],[5.824,7.081],[5.855,7.096],[5.843,7.118],[5.894,7.183],[5.884,7.2],[5.903,7.217],[5.897,7.258],[5.924,7.296],[5.919,7.337],[5.987,7.355],[5.968,7.415],[5.987,7.45],[5.963,7.46],[5.949,7.496],[5.954,7.515],[6.004,7.536],[5.938,7.649],[5.921,7.716],[5.931,7.745],[5.816,7.728],[5.773,7.747],[5.716,7.701],[5.689,7.632],[5.655,7.629],[5.625,7.582],[5.588,7.432],[5.521,7.333],[5.473,7.302],[5.388,7.283],[5.358,7.296],[5.347,7.381],[5.315,7.443],[5.217,7.434],[5.065,7.46],[5.009,7.426],[5.006,7.392],[4.99,7.378],[4.755,7.361],[4.735,7.284],[4.747,7.223],[4.709,7.165],[4.672,7.166],[4.673,7.14],[4.614,7.08],[4.61,7.031],[4.564,6.996],[4.547,6.841],[4.429,6.769],[4.39,6.716],[4.377,6.645],[4.454,6.607],[4.497,6.505],[4.565,6.634],[4.587,6.641],[4.601,6.618],[4.588,6.532],[4.605,6.492],[4.564,6.499],[4.56,6.451],[4.535,6.408],[4.504,6.416],[4.473,6.393],[4.582,6.378],[4.598,6.366],[4.595,6.332],[4.572,6.297],[4.488,6.336],[4.483,6.326]]]}},{"type":"Feature","properties":{"name":"Delta","zone":"South South"},"geometry":{"type":"Polygon","coordinates":[[[6.503,5.339],[6.483,5.421],[6.509,5.426],[6.535,5.459],[6.531,5.532],[6.585,5.562],[6.618,5.632],[6.601,5.707],[6.644,5.747],[6.661,5.857],[6.725,6.012],[6.726,6.041],[6.699,6.061],[6.705,6.081],[6.755,6.121],[6.769,6.168],[6.731,6.239],[6.669,6.501],[6.646,6.489],[6.609,6.5],[6.523,6.488],[6.413,6.396],[6.282,6.357],[6.213,6.279],[6.168,6.331],[6.127,6.356],[6.113,6.349],[6.077,6.279],[6.112,6.241],[6.134,6.136],[6.196,6.054],[6.245,6.054],[6.233,6.034],[6.257,6.017],[6.201,5.897],[6.121,5.84],[6.094,5.794],[6.04,5.765],[5.925,5.748],[5.894,5.799],[5.921,5.877],[5.833,5.941],[5.812,5.984],[5.795,5.98],[5.669,6.052],[5.657,6.033],[5.594,6.018],[5.546,5.985],[5.497,6.042],[5.456,6.022],[5.443,6.041],[5.428,6.007],[5.413,6.021],[5.334,6.021],[5.327,5.983],[5.359,5.97],[5.276,5.907],[5.249,5.984],[5.27,6.054],[5.234,6.065],[5.222,6.148],[5.184,6.147],[5.169,6.164],[5.161,6.143],[5.146,6.142],[5.134,6.169],[4.977,5.888],[5.041,5.783],[5.08,5.747],[5.121,5.643],[5.17,5.594],[5.247,5.622],[5.374,5.599],[5.399,5.637],[5.445,5.654],[5.504,5.616],[5.511,5.596],[5.467,5.631],[5.418,5.64],[5.387,5.586],[5.207,5.599],[5.157,5.537],[5.24,5.44],[5.355,5.39],[5.431,5.386],[5.472,5.399],[5.524,5.513],[5.6,5.517],[5.52,5.501],[5.507,5.444],[5.527,5.407],[5.467,5.372],[5.37,5.357],[5.325,5.367],[5.32,5.355],[5.353,5.168],[5.373,5.146],[5.444,5.147],[5.469,5.117],[5.468,5.093],[5.503,5.092],[5.533,5.063],[5.585,5.055],[5.648,5.012],[5.667,5.028],[5.71,5.024],[5.736,5.057],[5.779,5.058],[5.791,5.086],[5.868,5.068],[5.881,5.11],[5.915,5.108],[5.933,5.165],[5.961,5.157],[6.027,5.096],[6.062,5.103],[6.07,5.141],[6.086,5.151],[6.144,5.135],[6.166,5.161],[6.201,5.17],[6.202,5.232],[6.29,5.234],[6.284,5.275],[6.306,5.303],[6.339,5.32],[6.409,5.305],[6.45,5.328],[6.494,5.326],[6.503,5.339]]]}},{"type":"Feature","properties":{"name":"Rivers","zone":"South South"},"geometry":{"type":"Polygon","coordinates":[[[7.495,4.828],[7.416,4.867],[7.32,4.88],[7.218,4.857],[7.147,4.89],[7.16,4.935],[7.218,4.962],[7.241,4.994],[7.256,5.077],[7.288,5.147],[7.281,5.202],[7.264,5.216],[7.242,5.196],[7.21,5.197],[7.04,5.25],[6.904,5.22],[6.827,5.252],[6.756,5.323],[6.763,5.41],[6.741,5.494],[6.639,5.493],[6.669,5.69],[6.602,5.687],[6.618,5.632],[6.585,5.562],[6.531,5.532],[6.538,5.476],[6.525,5.439],[6.477,5.404],[6.485,5.379],[6.57,5.372],[6.563,5.32],[6.531,5.285],[6.567,5.237],[6.549,5.213],[6.559,5.198],[6.493,5.163],[6.412,5.005],[6.441,4.943],[6.398,4.864],[6.423,4.777],[6.43,4.766],[6.445,4.776],[6.441,4.745],[6.461,4.713],[6.537,4.756],[6.607,4.746],[6.512,4.643],[6.549,4.586],[6.543,4.568],[6.566,4.554],[6.545,4.533],[6.55,4.51],[6.513,4.432],[6.514,4.369],[6.545,4.355],[6.549,4.325],[6.62,4.326],[6.641,4.312],[6.647,4.326],[6.706,4.339],[6.682,4.409],[6.7,4.42],[6.69,4.519],[6.724,4.613],[6.732,4.572],[6.697,4.496],[6.717,4.35],[6.875,4.357],[6.85,4.39],[6.858,4.398],[6.957,4.373],[7.019,4.376],[6.976,4.503],[6.984,4.617],[6.998,4.607],[7.024,4.441],[7.159,4.464],[7.177,4.515],[7.166,4.549],[7.176,4.584],[7.15,4.641],[7.084,4.684],[7.086,4.723],[7.102,4.679],[7.153,4.66],[7.19,4.61],[7.217,4.545],[7.217,4.521],[7.135,4.41],[7.137,4.375],[7.308,4.409],[7.329,4.417],[7.333,4.444],[7.418,4.432],[7.587,4.453],[7.589,4.49],[7.543,4.515],[7.521,4.55],[7.544,4.58],[7.518,4.634],[7.517,4.68],[7.542,4.73],[7.495,4.828]]]}},{"type":"Feature","properties":{"name":"Kwara","zone":"North Central"},"geometry":{"type":"Polygon","coordinates":[[[4.569,8.055],[4.622,8.076],[4.666,8.043],[4.766,8.068],[4.819,8.054],[4.857,8.073],[4.854,8.096],[4.927,8.08],[4.967,8.047],[4.973,8.021],[5.04,8.072],[5.076,8.025],[5.118,8.063],[5.142,8.062],[5.196,8.018],[5.332,8.01],[5.361,8.039],[5.371,8.096],[5.498,8.111],[5.537,8.156],[5.537,8.206],[5.501,8.215],[5.466,8.202],[5.422,8.228],[5.418,8.284],[5.397,8.292],[5.357,8.275],[5.353,8.31],[5.322,8.341],[5.397,8.438],[5.496,8.529],[5.524,8.537],[5.643,8.463],[5.783,8.428],[6.078,8.398],[6.111,8.431],[6.125,8.556],[6.209,8.732],[6.15,8.721],[6.132,8.752],[6.084,8.761],[5.796,8.742],[5.728,8.82],[5.642,8.835],[5.525,8.94],[5.209,9.035],[5.159,9.107],[5.016,9.205],[4.972,9.201],[4.828,9.134],[4.785,9.135],[4.752,9.18],[4.755,9.248],[4.738,9.269],[4.639,9.308],[4.61,9.362],[4.501,9.44],[4.351,9.588],[4.153,9.862],[4.119,9.856],[4.115,9.882],[4.095,9.878],[4.083,9.852],[4.022,9.857],[4.002,9.907],[3.985,9.893],[3.936,9.916],[3.971,9.949],[3.935,9.967],[3.949,9.991],[3.887,9.988],[3.89,10.016],[3.903,10.019],[3.818,10.067],[3.785,10.062],[3.788,10.034],[3.775,10.033],[3.743,10.084],[3.731,10.068],[3.684,10.157],[3.676,10.103],[3.609,9.948],[3.525,9.844],[3.477,9.857],[3.367,9.837],[3.341,9.808],[3.331,9.756],[3.353,9.703],[3.171,9.496],[3.142,9.441],[3.167,9.366],[3.166,9.303],[3.095,9.091],[2.987,9.061],[2.968,9.081],[2.795,9.057],[2.743,8.771],[2.756,8.575],[2.802,8.61],[2.921,8.612],[3.014,8.71],[3.104,8.75],[3.164,8.809],[3.237,8.783],[3.388,8.842],[3.525,8.929],[3.6,8.957],[3.596,8.999],[3.691,8.997],[3.743,9.047],[3.771,9.147],[3.826,9.182],[3.921,9.173],[3.991,9.048],[4.012,9.035],[4.21,8.97],[4.253,8.967],[4.316,8.998],[4.335,8.981],[4.321,8.942],[4.221,8.861],[4.195,8.816],[4.19,8.753],[4.209,8.681],[4.392,8.304],[4.48,8.211],[4.506,8.092],[4.569,8.055]]]}},{"type":"Feature","properties":{"name":"Kogi","zone":"North Central"},"geometry":{"type":"Polygon","coordinates":[[[6.828,8.458],[6.825,8.404],[6.837,8.391],[6.807,8.343],[6.772,8.335],[6.767,8.309],[6.751,8.305],[6.761,8.273],[6.72,8.275],[6.713,8.202],[6.691,8.183],[6.608,8.314],[6.453,8.448],[6.406,8.612],[6.359,8.685],[6.303,8.728],[6.247,8.739],[6.209,8.732],[6.17,8.663],[6.125,8.556],[6.111,8.431],[6.078,8.398],[5.705,8.446],[5.643,8.463],[5.513,8.539],[5.397,8.438],[5.322,8.341],[5.353,8.31],[5.357,8.275],[5.397,8.292],[5.418,8.284],[5.422,8.228],[5.466,8.202],[5.501,8.215],[5.537,8.206],[5.533,8.147],[5.498,8.115],[5.514,8.111],[5.506,8.019],[5.577,8.071],[5.66,8.07],[5.64,8.054],[5.668,8.002],[5.645,7.963],[5.599,7.958],[5.623,7.843],[5.643,7.829],[5.729,7.828],[5.756,7.796],[5.792,7.782],[5.773,7.747],[5.816,7.728],[5.929,7.747],[5.938,7.649],[6.004,7.529],[6.043,7.577],[6.119,7.591],[6.134,7.552],[6.167,7.545],[6.11,7.494],[6.112,7.449],[6.16,7.448],[6.183,7.429],[6.227,7.471],[6.295,7.499],[6.38,7.398],[6.428,7.415],[6.436,7.36],[6.467,7.365],[6.497,7.333],[6.511,7.267],[6.638,7.294],[6.693,7.216],[6.716,7.136],[6.677,7.034],[6.673,6.936],[6.611,6.822],[6.632,6.769],[6.618,6.705],[6.653,6.634],[6.662,6.558],[6.808,6.58],[6.8,6.693],[6.897,6.792],[6.923,6.802],[6.93,6.786],[6.945,6.799],[6.963,6.844],[6.987,6.844],[6.991,6.785],[7.042,6.783],[7.081,6.8],[7.156,6.883],[7.21,6.904],[7.239,6.941],[7.241,6.971],[7.385,7.052],[7.394,7.093],[7.47,7.094],[7.531,7.032],[7.544,7.04],[7.608,7.018],[7.602,7.091],[7.643,7.158],[7.691,7.192],[7.718,7.184],[7.779,7.209],[7.797,7.233],[7.801,7.293],[7.769,7.302],[7.803,7.364],[7.799,7.401],[7.764,7.434],[7.756,7.53],[7.737,7.539],[7.724,7.62],[7.755,7.648],[7.753,7.744],[7.664,7.906],[7.677,8.017],[7.505,8.047],[7.306,8.028],[7.073,7.943],[6.964,7.879],[6.953,7.918],[6.978,7.986],[6.971,8.03],[7.003,8.167],[6.935,8.31],[6.981,8.444],[6.941,8.459],[6.828,8.458]]]}},{"type":"Feature","properties":{"name":"Benue","zone":"North Central"},"geometry":{"type":"Polygon","coordinates":[[[9.467,6.401],[9.525,6.43],[9.598,6.5],[9.646,6.739],[9.646,6.895],[9.738,7.078],[9.824,7.172],[9.835,7.217],[9.825,7.255],[9.883,7.414],[9.885,7.508],[9.871,7.54],[9.747,7.655],[9.643,7.8],[9.561,7.839],[9.387,7.845],[9.13,7.788],[9.116,7.808],[9.124,7.827],[9.183,7.896],[9.133,7.991],[9.062,8.074],[8.911,8.056],[8.781,8.075],[8.524,8.157],[8.466,8.139],[8.391,8.078],[8.371,8.046],[8.36,7.962],[8.344,7.973],[8.34,7.961],[8.348,7.928],[8.391,7.89],[8.42,7.783],[8.403,7.766],[8.183,7.853],[8.072,7.877],[7.877,7.983],[7.677,8.014],[7.664,7.906],[7.753,7.744],[7.755,7.648],[7.724,7.62],[7.737,7.539],[7.756,7.53],[7.764,7.434],[7.799,7.401],[7.803,7.364],[7.769,7.302],[7.801,7.293],[7.797,7.233],[7.779,7.209],[7.718,7.184],[7.691,7.192],[7.643,7.158],[7.602,7.091],[7.608,7.018],[7.544,7.04],[7.531,7.032],[7.571,6.94],[7.62,6.919],[7.675,6.856],[7.75,6.878],[7.786,6.873],[7.792,6.889],[7.819,6.892],[7.864,6.88],[7.888,6.854],[7.886,6.794],[7.903,6.781],[7.811,6.646],[7.832,6.638],[7.856,6.581],[7.951,6.543],[7.955,6.583],[7.988,6.618],[7.975,6.69],[7.984,6.72],[8.02,6.733],[8.099,6.707],[8.128,6.712],[8.173,6.773],[8.22,6.779],[8.229,6.8],[8.266,6.742],[8.252,6.736],[8.286,6.71],[8.279,6.698],[8.295,6.679],[8.321,6.679],[8.361,6.693],[8.42,6.757],[8.469,6.746],[8.621,6.781],[8.642,6.819],[8.601,6.856],[8.721,6.896],[8.848,6.866],[8.974,6.789],[8.995,6.754],[8.969,6.694],[8.992,6.692],[9.035,6.647],[9.07,6.642],[9.136,6.68],[9.3,6.72],[9.471,6.525],[9.467,6.401]]]}},{"type":"Feature","properties":{"name":"Borno","zone":"North East"},"geometry":{"type":"Polygon","coordinates":[[[11.79,10.039],[11.921,10.025],[11.991,10.035],[12.019,10.067],[12.087,10.06],[12.103,10.093],[12.089,10.143],[12.136,10.237],[12.213,10.281],[12.257,10.36],[12.28,10.329],[12.306,10.336],[12.313,10.315],[12.387,10.317],[12.379,10.35],[12.422,10.371],[12.557,10.395],[12.558,10.446],[12.579,10.492],[12.603,10.484],[12.607,10.451],[12.652,10.439],[12.745,10.58],[12.875,10.574],[12.959,10.548],[13.052,10.464],[13.197,10.409],[13.214,10.448],[13.228,10.443],[13.248,10.508],[13.253,10.54],[13.233,10.558],[13.233,10.589],[13.258,10.612],[13.319,10.737],[13.346,10.931],[13.389,10.896],[13.383,10.878],[13.585,10.949],[13.67,10.945],[13.751,10.914],[13.811,11.052],[14.004,11.283],[14.164,11.234],[14.411,11.404],[14.467,11.416],[14.618,11.506],[14.646,11.576],[14.641,11.647],[14.589,11.692],[14.589,11.755],[14.612,11.825],[14.605,11.869],[14.643,11.912],[14.634,11.933],[14.656,11.962],[14.622,12.036],[14.631,12.059],[14.653,12.064],[14.636,12.092],[14.674,12.176],[14.659,12.198],[14.614,12.186],[14.598,12.195],[14.609,12.201],[14.593,12.228],[14.55,12.236],[14.559,12.259],[14.548,12.281],[14.512,12.296],[14.52,12.327],[14.485,12.351],[14.444,12.35],[14.431,12.37],[14.228,12.362],[14.176,12.41],[14.197,12.449],[14.182,12.447],[14.176,12.479],[14.2,12.501],[14.203,12.538],[14.083,13.083],[13.634,13.708],[13.363,13.708],[13.338,13.721],[13.335,13.694],[13.309,13.696],[13.294,13.659],[13.258,13.631],[13.263,13.62],[13.243,13.616],[13.263,13.595],[13.251,13.58],[13.226,13.589],[13.24,13.565],[13.207,13.549],[13.198,13.513],[13.181,13.538],[13.14,13.518],[13.147,13.551],[13.122,13.541],[13.125,13.522],[13.104,13.54],[13.089,13.516],[13.061,13.527],[13.073,13.535],[13.062,13.55],[12.877,13.486],[12.773,13.394],[12.736,13.348],[12.739,13.326],[12.708,13.324],[12.72,13.309],[12.682,13.321],[12.692,13.303],[12.677,13.276],[12.644,13.289],[12.646,13.308],[12.626,13.279],[12.591,13.283],[12.593,13.255],[12.534,13.207],[12.559,13.201],[12.556,13.161],[12.508,13.14],[12.459,13.066],[12.43,13.073],[12.395,12.916],[12.409,12.86],[12.485,12.802],[12.504,12.691],[12.465,12.614],[12.428,12.602],[12.444,12.561],[12.419,12.524],[12.377,12.52],[12.353,12.46],[12.287,12.425],[12.286,12.33],[12.268,12.323],[12.285,12.315],[12.285,12.266],[12.25,12.213],[12.264,12.179],[12.236,12.137],[12.238,12.09],[12.281,11.995],[12.256,11.886],[12.27,11.826],[12.244,11.809],[12.196,11.658],[12.224,11.633],[12.275,11.694],[12.301,11.645],[12.3,11.609],[12.348,11.583],[12.374,11.55],[12.322,11.451],[12.202,11.357],[12.187,11.302],[12.103,11.248],[12.121,11.14],[12.153,11.12],[12.167,11.086],[12.153,11.05],[12.126,11.038],[12.043,11.049],[11.938,10.948],[11.908,10.939],[11.9,10.969],[11.855,10.935],[11.783,10.937],[11.722,10.896],[11.64,10.876],[11.634,10.833],[11.751,10.813],[11.767,10.706],[11.754,10.663],[11.714,10.634],[11.583,10.594],[11.573,10.573],[11.661,10.486],[11.655,10.456],[11.62,10.442],[11.597,10.395],[11.552,10.369],[11.546,10.327],[11.529,10.314],[11.545,10.318],[11.551,10.29],[11.59,10.283],[11.623,10.21],[11.711,10.173],[11.79,10.039]]]}},{"type":"Feature","properties":{"name":"Katsina","zone":"North West"},"geometry":{"type":"Polygon","coordinates":[[[6.889,11.384],[6.919,11.385],[6.961,11.359],[7.006,11.362],[7.009,11.294],[6.968,11.245],[7.025,11.21],[7.069,11.203],[7.152,11.129],[7.2,11.152],[7.22,11.194],[7.195,11.258],[7.227,11.279],[7.29,11.284],[7.358,11.264],[7.37,11.333],[7.398,11.378],[7.468,11.378],[7.489,11.352],[7.52,11.362],[7.522,11.34],[7.574,11.319],[7.608,11.272],[7.706,11.31],[7.721,11.325],[7.72,11.37],[7.751,11.371],[7.722,11.416],[7.694,11.42],[7.675,11.483],[7.68,11.524],[7.719,11.569],[7.705,11.592],[7.767,11.629],[7.84,11.632],[7.871,11.659],[7.902,11.653],[7.897,11.697],[7.861,11.762],[7.852,11.836],[7.865,11.873],[7.83,11.922],[7.826,11.953],[7.88,12.044],[7.854,12.155],[7.878,12.253],[7.865,12.281],[7.892,12.33],[7.987,12.373],[8.002,12.394],[8.157,12.44],[8.172,12.493],[8.19,12.505],[8.174,12.52],[8.18,12.564],[8.246,12.594],[8.19,12.624],[8.182,12.652],[8.153,12.655],[8.16,12.684],[8.145,12.721],[8.185,12.732],[8.152,12.797],[8.128,12.801],[8.152,12.819],[8.337,12.836],[8.435,12.815],[8.563,12.834],[8.589,12.809],[8.604,12.737],[8.652,12.733],[8.688,12.688],[8.745,12.667],[8.85,12.679],[8.865,12.669],[8.951,12.738],[8.983,12.807],[9.047,12.816],[9.041,12.846],[8.978,12.837],[8.955,12.856],[8.664,12.943],[8.615,13.022],[8.542,13.075],[8.409,13.088],[8.287,13.198],[8.226,13.224],[8.122,13.304],[8.041,13.321],[7.82,13.352],[7.38,13.1],[7.219,13.126],[7.091,12.995],[7.051,12.995],[7.069,12.832],[7.056,12.823],[7.061,12.74],[6.989,12.673],[7.044,12.659],[7.093,12.283],[7.15,12.232],[7.157,12.185],[7.117,12.094],[7.136,12.086],[7.13,12.068],[7.154,12.026],[7.211,11.985],[7.22,11.95],[7.247,11.933],[7.2,11.901],[7.141,11.911],[7.142,11.849],[7.075,11.817],[7.06,11.79],[7.017,11.816],[6.917,11.786],[6.901,11.798],[6.852,11.621],[6.857,11.589],[6.904,11.553],[6.889,11.384]]]}},{"type":"Feature","properties":{"name":"Plateau","zone":"North Central"},"geometry":{"type":"Polygon","coordinates":[[[9.617,8.372],[9.653,8.384],[9.757,8.367],[9.869,8.431],[10.052,8.592],[10.249,8.808],[10.407,8.935],[10.464,8.963],[10.597,8.976],[10.627,9.019],[10.64,9.073],[10.623,9.094],[10.636,9.127],[10.614,9.149],[10.614,9.183],[10.58,9.246],[10.58,9.327],[10.56,9.351],[10.577,9.446],[10.523,9.488],[10.489,9.553],[10.373,9.603],[10.261,9.687],[10.152,9.679],[10.143,9.692],[10.109,9.691],[10.103,9.72],[10.068,9.731],[9.984,9.713],[9.973,9.7],[9.991,9.638],[9.962,9.613],[9.839,9.601],[9.764,9.54],[9.692,9.522],[9.668,9.535],[9.648,9.522],[9.579,9.552],[9.57,9.529],[9.59,9.512],[9.569,9.473],[9.425,9.477],[9.397,9.531],[9.351,9.532],[9.304,9.572],[9.309,9.599],[9.327,9.596],[9.29,9.614],[9.285,9.698],[9.267,9.68],[9.217,9.684],[9.15,9.748],[9.219,9.773],[9.271,9.842],[9.232,9.862],[9.214,10.018],[9.255,10.03],[9.23,10.048],[9.183,10.038],[9.124,10.058],[9.059,10.018],[9.004,10.032],[9.003,9.989],[8.977,9.987],[8.939,10.027],[8.977,10.161],[8.974,10.19],[8.93,10.215],[8.955,10.309],[8.93,10.352],[8.818,10.38],[8.799,10.303],[8.734,10.275],[8.729,10.248],[8.686,10.211],[8.672,10.146],[8.68,10.005],[8.635,9.867],[8.644,9.775],[8.599,9.728],[8.599,9.679],[8.58,9.673],[8.555,9.581],[8.569,9.52],[8.603,9.483],[8.618,9.435],[8.648,9.396],[8.695,9.378],[8.698,9.321],[8.661,9.195],[8.765,9.165],[8.76,9.105],[8.799,9.071],[8.798,9.032],[9.063,9.018],[9.072,8.945],[9.046,8.923],[9.024,8.866],[8.959,8.85],[8.945,8.8],[8.901,8.776],[8.892,8.74],[8.914,8.686],[8.94,8.667],[8.951,8.621],[8.983,8.597],[8.982,8.527],[9.019,8.51],[9.049,8.52],[9.07,8.488],[9.101,8.474],[9.097,8.441],[9.132,8.429],[9.175,8.467],[9.289,8.461],[9.355,8.483],[9.602,8.393],[9.617,8.372]]]}},{"type":"Feature","properties":{"name":"Edo","zone":"South South"},"geometry":{"type":"Polygon","coordinates":[[[5.122,6.206],[5.146,6.142],[5.161,6.143],[5.169,6.164],[5.184,6.147],[5.222,6.148],[5.234,6.065],[5.27,6.054],[5.249,5.984],[5.276,5.907],[5.359,5.97],[5.327,5.983],[5.334,6.021],[5.413,6.021],[5.428,6.007],[5.443,6.041],[5.456,6.022],[5.497,6.042],[5.546,5.985],[5.594,6.018],[5.657,6.033],[5.669,6.052],[5.795,5.98],[5.812,5.984],[5.833,5.941],[5.921,5.877],[5.894,5.799],[5.925,5.748],[5.982,5.748],[6.094,5.794],[6.121,5.84],[6.218,5.917],[6.257,6.017],[6.233,6.034],[6.245,6.054],[6.196,6.054],[6.134,6.136],[6.112,6.241],[6.077,6.279],[6.088,6.318],[6.127,6.356],[6.213,6.279],[6.282,6.357],[6.413,6.396],[6.523,6.488],[6.609,6.5],[6.646,6.489],[6.669,6.501],[6.653,6.634],[6.618,6.705],[6.632,6.769],[6.611,6.822],[6.673,6.936],[6.677,7.034],[6.716,7.121],[6.693,7.216],[6.638,7.294],[6.511,7.267],[6.497,7.333],[6.467,7.365],[6.436,7.36],[6.428,7.415],[6.38,7.398],[6.295,7.499],[6.227,7.471],[6.183,7.429],[6.16,7.448],[6.112,7.449],[6.11,7.494],[6.167,7.545],[6.134,7.552],[6.119,7.591],[6.043,7.577],[6.013,7.533],[5.954,7.515],[5.948,7.487],[5.987,7.45],[5.968,7.415],[5.987,7.355],[5.919,7.337],[5.924,7.296],[5.897,7.258],[5.903,7.217],[5.884,7.2],[5.894,7.183],[5.843,7.118],[5.855,7.096],[5.824,7.081],[5.793,7.022],[5.786,6.968],[5.8,6.921],[5.767,6.792],[5.703,6.736],[5.667,6.728],[5.629,6.746],[5.577,6.704],[5.544,6.813],[5.571,6.845],[5.562,6.879],[5.272,6.888],[5.255,6.883],[5.197,6.774],[5.141,6.731],[5.112,6.63],[5.128,6.588],[5.162,6.562],[5.153,6.498],[5.103,6.441],[5.104,6.402],[5.029,6.364],[5.035,6.328],[5.013,6.302],[5.073,6.24],[5.089,6.201],[5.122,6.206]]]}},{"type":"Feature","properties":{"name":"Jigawa","zone":"North West"},"geometry":{"type":"Polygon","coordinates":[[[8.246,12.594],[8.289,12.6],[8.297,12.534],[8.355,12.48],[8.366,12.432],[8.458,12.587],[8.489,12.601],[8.641,12.593],[8.646,12.56],[8.719,12.567],[8.738,12.551],[8.687,12.483],[8.696,12.443],[8.71,12.416],[8.764,12.42],[8.795,12.382],[8.78,12.341],[8.756,12.344],[8.724,12.295],[8.758,12.293],[8.775,12.275],[8.84,12.308],[8.91,12.301],[8.952,12.185],[8.943,12.155],[8.931,12.155],[8.938,12.114],[8.915,12.076],[8.978,12.084],[9.007,12.063],[9.074,12.074],[9.085,12.027],[9.133,12.035],[9.149,12.019],[9.156,12.068],[9.199,12.083],[9.228,12.014],[9.201,11.962],[9.202,11.905],[9.227,11.909],[9.23,11.895],[9.187,11.835],[9.144,11.827],[9.142,11.759],[9.171,11.703],[9.226,11.736],[9.249,11.697],[9.233,11.677],[9.241,11.645],[9.274,11.644],[9.282,11.613],[9.36,11.561],[9.331,11.517],[9.284,11.503],[9.232,11.45],[9.232,11.406],[9.195,11.327],[9.287,11.349],[9.304,11.338],[9.346,11.347],[9.412,11.3],[9.498,11.278],[9.512,11.313],[9.609,11.315],[9.596,11.248],[9.678,11.221],[9.825,11.28],[9.861,11.198],[9.881,11.196],[9.889,11.094],[9.853,11.066],[9.869,11.0],[9.929,10.992],[10.006,10.956],[10.01,10.97],[10.046,10.966],[10.112,10.992],[10.111,10.963],[10.134,10.948],[10.22,10.947],[10.204,10.975],[10.156,11.006],[10.169,11.058],[10.21,11.092],[10.248,11.079],[10.27,11.088],[10.314,11.131],[10.334,11.118],[10.366,11.206],[10.279,11.203],[10.235,11.224],[10.176,11.224],[10.12,11.237],[10.084,11.27],[10.012,11.261],[9.958,11.286],[9.941,11.314],[9.913,11.316],[9.918,11.347],[9.883,11.359],[9.875,11.453],[9.856,11.466],[9.801,11.443],[9.785,11.468],[9.788,11.505],[9.831,11.54],[9.82,11.58],[9.835,11.599],[9.811,11.625],[9.828,11.635],[9.828,11.692],[9.802,11.691],[9.78,11.737],[9.704,11.721],[9.64,11.733],[9.62,11.754],[9.641,11.779],[9.67,11.784],[9.683,11.867],[9.708,11.85],[9.834,11.89],[9.889,11.937],[10.02,11.984],[10.054,11.978],[10.093,11.994],[10.097,12.019],[10.125,12.014],[10.174,12.039],[10.152,12.09],[10.17,12.165],[10.148,12.238],[10.207,12.312],[10.195,12.328],[10.208,12.354],[10.254,12.391],[10.225,12.434],[10.258,12.46],[10.339,12.441],[10.394,12.465],[10.447,12.439],[10.606,12.489],[10.591,12.505],[10.605,12.512],[10.586,12.539],[10.603,12.563],[10.585,12.57],[10.596,12.617],[10.581,12.648],[10.596,12.663],[10.599,12.706],[10.584,12.711],[10.569,12.794],[10.547,12.821],[10.495,12.816],[10.503,12.807],[10.475,12.79],[10.385,12.841],[10.331,12.847],[10.325,12.811],[10.291,12.815],[10.305,12.861],[10.264,12.955],[10.283,12.962],[10.282,12.979],[10.224,13.015],[10.099,12.986],[10.104,12.966],[10.089,12.984],[10.064,12.978],[10.051,12.953],[10.032,12.965],[9.988,12.956],[9.943,12.911],[9.93,12.919],[9.91,12.859],[9.858,12.82],[9.787,12.814],[9.786,12.799],[9.748,12.798],[9.662,12.834],[9.635,12.802],[9.041,12.846],[9.047,12.816],[8.983,12.807],[8.951,12.738],[8.865,12.669],[8.85,12.679],[8.745,12.667],[8.688,12.688],[8.652,12.733],[8.604,12.737],[8.589,12.809],[8.563,12.834],[8.435,12.815],[8.337,12.836],[8.152,12.819],[8.128,12.797],[8.152,12.797],[8.185,12.732],[8.145,12.721],[8.16,12.684],[8.153,12.655],[8.182,12.652],[8.19,12.624],[8.246,12.594]]]}},{"type":"Feature","properties":{"name":"Anambra","zone":"South East"},"geometry":{"type":"Polygon","coordinates":[[[6.602,5.687],[6.653,5.682],[6.691,5.7],[6.695,5.746],[6.714,5.761],[6.751,5.75],[6.811,5.788],[6.877,5.744],[6.892,5.809],[6.948,5.839],[7.003,5.905],[7.06,5.931],[7.189,5.9],[7.212,5.929],[7.261,5.939],[7.264,5.991],[7.323,6.004],[7.339,6.042],[7.3,6.048],[7.309,6.079],[7.261,6.079],[7.229,6.128],[7.224,6.191],[7.2,6.235],[7.143,6.236],[7.143,6.289],[7.162,6.316],[7.144,6.388],[7.089,6.426],[7.032,6.442],[7.055,6.545],[7.109,6.593],[7.132,6.643],[7.102,6.676],[6.991,6.713],[6.91,6.696],[6.861,6.753],[6.8,6.693],[6.808,6.58],[6.662,6.558],[6.723,6.266],[6.769,6.168],[6.755,6.121],[6.705,6.081],[6.703,6.051],[6.726,6.041],[6.716,5.97],[6.661,5.857],[6.644,5.747],[6.601,5.707],[6.602,5.687]]]}},{"type":"Feature","properties":{"name":"Kano","zone":"North West"},"geometry":{"type":"Polygon","coordinates":[[[7.751,11.371],[7.769,11.379],[7.789,11.36],[7.798,11.377],[7.827,11.37],[7.879,11.386],[7.894,11.427],[7.968,11.479],[7.996,11.492],[8.047,11.486],[8.102,11.524],[8.15,11.519],[8.162,11.497],[8.14,11.457],[8.143,11.42],[8.114,11.408],[8.123,11.387],[8.207,11.319],[8.237,11.327],[8.264,11.313],[8.257,11.28],[8.286,11.268],[8.298,11.234],[8.434,11.227],[8.465,11.17],[8.519,11.162],[8.506,11.132],[8.52,11.115],[8.607,11.071],[8.615,11.018],[8.568,10.907],[8.585,10.861],[8.559,10.789],[8.572,10.748],[8.481,10.716],[8.514,10.643],[8.644,10.63],[8.711,10.543],[8.783,10.597],[8.822,10.672],[8.852,10.686],[8.829,10.758],[8.786,10.797],[8.766,10.851],[8.745,10.859],[8.767,10.942],[8.789,10.942],[8.78,11.012],[8.793,11.083],[8.802,11.074],[8.813,11.092],[8.805,11.104],[8.856,11.098],[8.893,11.117],[8.92,11.177],[8.996,11.227],[9.027,11.277],[9.085,11.315],[9.102,11.307],[9.13,11.329],[9.18,11.309],[9.222,11.374],[9.232,11.45],[9.284,11.503],[9.331,11.517],[9.36,11.561],[9.282,11.613],[9.274,11.644],[9.241,11.645],[9.233,11.677],[9.249,11.697],[9.226,11.736],[9.171,11.703],[9.142,11.759],[9.144,11.827],[9.187,11.835],[9.23,11.895],[9.227,11.909],[9.202,11.905],[9.201,11.962],[9.228,12.014],[9.199,12.083],[9.156,12.068],[9.149,12.019],[9.133,12.035],[9.085,12.027],[9.074,12.074],[9.007,12.063],[8.978,12.084],[8.915,12.076],[8.938,12.114],[8.931,12.155],[8.943,12.155],[8.952,12.185],[8.91,12.301],[8.84,12.308],[8.775,12.275],[8.758,12.293],[8.724,12.295],[8.756,12.344],[8.78,12.341],[8.795,12.382],[8.764,12.42],[8.71,12.416],[8.696,12.443],[8.687,12.483],[8.738,12.551],[8.73,12.559],[8.692,12.572],[8.646,12.56],[8.641,12.593],[8.492,12.602],[8.458,12.587],[8.366,12.432],[8.355,12.48],[8.3,12.527],[8.279,12.605],[8.18,12.564],[8.174,12.52],[8.19,12.505],[8.172,12.493],[8.157,12.44],[8.002,12.394],[7.987,12.373],[7.892,12.33],[7.865,12.281],[7.878,12.253],[7.854,12.155],[7.88,12.044],[7.826,11.953],[7.83,11.922],[7.865,11.873],[7.852,11.836],[7.861,11.762],[7.897,11.697],[7.902,11.653],[7.871,11.659],[7.84,11.632],[7.767,11.629],[7.705,11.592],[7.719,11.569],[7.68,11.524],[7.675,11.483],[7.694,11.42],[7.722,11.416],[7.751,11.371]]]}},{"type":"Feature","properties":{"name":"Nasarawa","zone":"North Central"},"geometry":{"type":"Polygon","coordinates":[[[6.981,8.444],[6.935,8.31],[7.003,8.167],[6.971,8.03],[6.978,7.986],[6.953,7.918],[6.964,7.879],[7.073,7.943],[7.254,8.015],[7.393,8.044],[7.505,8.047],[7.877,7.983],[8.072,7.877],[8.183,7.853],[8.403,7.766],[8.42,7.783],[8.391,7.89],[8.348,7.928],[8.34,7.961],[8.344,7.973],[8.36,7.962],[8.371,8.046],[8.391,8.078],[8.504,8.158],[8.781,8.075],[8.911,8.056],[9.025,8.063],[9.057,8.078],[9.133,7.991],[9.179,7.908],[9.336,7.986],[9.415,8.062],[9.387,8.149],[9.412,8.177],[9.323,8.253],[9.363,8.341],[9.39,8.349],[9.493,8.304],[9.61,8.291],[9.618,8.303],[9.617,8.372],[9.602,8.393],[9.47,8.431],[9.381,8.478],[9.289,8.461],[9.175,8.467],[9.132,8.429],[9.097,8.441],[9.101,8.474],[9.07,8.488],[9.049,8.52],[9.019,8.51],[8.982,8.527],[8.983,8.597],[8.951,8.621],[8.94,8.667],[8.914,8.686],[8.892,8.74],[8.901,8.776],[8.945,8.8],[8.959,8.85],[9.011,8.854],[9.072,8.945],[9.057,9.024],[8.924,9.016],[8.798,9.032],[8.799,9.071],[8.76,9.105],[8.765,9.165],[8.668,9.19],[8.658,9.208],[8.621,9.115],[8.567,9.061],[8.576,9.034],[8.533,9.004],[8.504,9.001],[8.447,9.113],[8.387,9.176],[8.343,9.194],[8.328,9.181],[8.258,9.183],[8.233,9.105],[8.192,9.052],[8.099,9.04],[8.062,9.052],[8.087,9.231],[8.061,9.266],[7.919,9.317],[7.873,9.29],[7.793,9.276],[7.724,9.329],[7.668,9.304],[7.589,9.129],[7.592,8.835],[7.496,8.654],[7.365,8.488],[7.133,8.449],[7.141,8.435],[7.124,8.423],[7.084,8.419],[7.08,8.443],[6.981,8.444]]]}},{"type":"Feature","properties":{"name":"Kebbi","zone":"North West"},"geometry":{"type":"Polygon","coordinates":[[[4.126,13.25],[4.142,13.162],[4.105,12.996],[3.953,12.749],[3.658,12.529],[3.666,12.207],[3.628,12.125],[3.672,11.976],[3.619,11.908],[3.632,11.825],[3.66,11.81],[3.665,11.759],[3.614,11.7],[3.511,11.67],[3.511,11.525],[3.475,11.43],[3.486,11.313],[3.663,11.148],[3.722,11.132],[3.731,11.083],[3.717,11.02],[3.77,10.92],[3.802,10.946],[3.933,10.943],[3.993,11.016],[4.1,11.026],[4.267,11.025],[4.257,10.99],[4.277,10.954],[4.33,10.951],[4.339,10.903],[4.381,10.88],[4.45,10.886],[4.54,10.92],[4.615,10.888],[4.695,10.919],[4.723,10.867],[4.698,10.801],[4.691,10.663],[4.601,10.571],[4.51,10.535],[4.479,10.421],[4.483,10.329],[4.542,10.287],[4.569,10.246],[4.527,10.143],[4.53,10.101],[4.625,10.103],[4.647,10.205],[4.671,10.212],[4.669,10.226],[4.794,10.261],[4.872,10.218],[4.947,10.285],[4.95,10.39],[4.932,10.44],[4.853,10.46],[4.819,10.507],[4.824,10.595],[4.796,10.629],[4.81,10.698],[4.894,10.707],[4.908,10.69],[4.947,10.69],[4.955,10.706],[5.012,10.724],[5.027,10.75],[5.055,10.738],[5.101,10.761],[5.109,10.796],[5.047,10.825],[5.029,10.859],[5.025,10.89],[5.082,10.927],[5.041,11.052],[4.996,11.054],[4.98,11.081],[4.909,11.082],[4.84,11.114],[4.803,11.114],[4.746,11.148],[4.703,11.229],[4.739,11.251],[4.704,11.268],[4.712,11.297],[4.879,11.355],[4.898,11.391],[4.966,11.362],[5.012,11.252],[5.058,11.27],[5.053,11.205],[5.071,11.238],[5.233,11.218],[5.25,11.309],[5.333,11.356],[5.389,11.231],[5.39,11.173],[5.413,11.121],[5.394,11.118],[5.389,11.037],[5.447,10.983],[5.501,10.975],[5.522,10.99],[5.556,10.947],[5.578,10.969],[5.636,10.965],[5.729,10.998],[5.8,11.083],[5.898,11.114],[5.915,11.145],[5.978,11.167],[6.016,11.138],[6.059,11.23],[6.07,11.227],[6.047,11.163],[6.106,11.183],[6.117,11.207],[6.109,11.238],[6.136,11.295],[6.191,11.334],[6.175,11.359],[6.204,11.384],[6.08,11.388],[6.053,11.402],[6.01,11.463],[5.968,11.467],[5.934,11.437],[5.835,11.435],[5.816,11.515],[5.829,11.625],[5.788,11.679],[5.705,11.688],[5.67,11.661],[5.564,11.684],[5.497,11.656],[5.461,11.671],[5.44,11.709],[5.35,11.709],[5.328,11.772],[5.296,11.755],[5.318,11.778],[5.31,11.794],[5.288,11.769],[5.271,11.78],[5.238,11.756],[5.178,11.792],[5.166,11.78],[5.184,11.766],[5.177,11.744],[5.134,11.728],[5.081,11.732],[5.063,11.708],[5.03,11.72],[5.007,11.75],[4.894,11.709],[4.889,11.75],[4.85,11.735],[4.815,11.766],[4.721,11.695],[4.677,11.682],[4.662,11.694],[4.667,11.668],[4.635,11.672],[4.623,11.657],[4.586,11.655],[4.57,11.633],[4.546,11.634],[4.547,11.597],[4.57,11.574],[4.523,11.53],[4.483,11.532],[4.497,11.552],[4.419,11.614],[4.427,11.671],[4.375,11.715],[4.369,11.747],[4.381,11.74],[4.378,11.763],[4.394,11.757],[4.417,11.709],[4.436,11.711],[4.549,11.796],[4.551,11.892],[4.588,12.039],[4.552,12.098],[4.562,12.23],[4.521,12.251],[4.549,12.251],[4.549,12.301],[4.593,12.347],[4.588,12.396],[4.63,12.433],[4.691,12.4],[4.709,12.365],[4.754,12.364],[4.757,12.45],[4.812,12.504],[4.796,12.512],[4.795,12.575],[4.732,12.672],[4.73,12.702],[4.77,12.789],[4.806,12.804],[4.807,12.819],[4.694,12.933],[4.646,12.949],[4.732,13.053],[4.702,13.073],[4.623,13.07],[4.471,13.179],[4.374,13.201],[4.3,13.26],[4.126,13.25]]]}},{"type":"Feature","properties":{"name":"Imo","zone":"South East"},"geometry":{"type":"Polygon","coordinates":[[[7.264,5.216],[7.323,5.408],[7.404,5.529],[7.432,5.609],[7.41,5.674],[7.382,5.706],[7.4,5.713],[7.392,5.912],[7.285,5.918],[7.261,5.939],[7.212,5.929],[7.189,5.9],[7.06,5.931],[7.003,5.905],[6.948,5.839],[6.892,5.809],[6.88,5.746],[6.811,5.788],[6.751,5.75],[6.714,5.761],[6.695,5.746],[6.691,5.7],[6.669,5.69],[6.639,5.493],[6.741,5.494],[6.763,5.41],[6.756,5.323],[6.804,5.269],[6.904,5.22],[7.04,5.25],[7.21,5.197],[7.242,5.196],[7.264,5.216]]]}},{"type":"Feature","properties":{"name":"Gombe","zone":"North East"},"geometry":{"type":"Polygon","coordinates":[[[11.583,10.594],[11.528,10.568],[11.513,10.585],[11.517,10.732],[11.539,10.851],[11.527,10.942],[11.449,11.047],[11.371,11.098],[11.319,11.186],[11.311,11.169],[11.249,11.184],[11.224,11.165],[11.182,11.199],[11.092,11.226],[11.077,11.287],[10.982,11.179],[11.009,11.149],[10.93,11.091],[10.799,11.084],[10.772,11.06],[10.738,11.101],[10.669,11.04],[10.665,10.994],[10.641,10.961],[10.677,10.931],[10.647,10.893],[10.652,10.881],[10.569,10.811],[10.494,10.688],[10.529,10.65],[10.563,10.642],[10.558,10.601],[10.662,10.491],[10.73,10.487],[10.791,10.435],[10.81,10.448],[10.804,10.424],[10.835,10.4],[10.819,10.313],[10.863,10.268],[10.857,10.236],[10.807,10.138],[10.738,10.121],[10.712,10.076],[10.717,10.05],[10.945,9.88],[10.977,9.813],[10.956,9.672],[10.99,9.641],[10.969,9.615],[10.992,9.559],[11.076,9.551],[11.114,9.526],[11.222,9.569],[11.278,9.548],[11.42,9.546],[11.468,9.598],[11.563,9.605],[11.614,9.656],[11.634,9.627],[11.655,9.637],[11.757,9.719],[11.776,9.707],[11.851,9.786],[11.852,9.814],[11.801,9.841],[11.835,9.93],[11.823,9.97],[11.836,10.034],[11.79,10.039],[11.711,10.173],[11.623,10.21],[11.59,10.283],[11.551,10.29],[11.545,10.318],[11.529,10.314],[11.546,10.327],[11.552,10.369],[11.597,10.395],[11.603,10.427],[11.656,10.461],[11.663,10.497],[11.6,10.534],[11.573,10.573],[11.583,10.594]]]}},{"type":"Feature","properties":{"name":"Adamawa","zone":"North East"},"geometry":{"type":"Polygon","coordinates":[[[11.836,10.034],[11.823,9.97],[11.835,9.93],[11.801,9.841],[11.852,9.814],[11.855,9.793],[11.817,9.741],[11.776,9.707],[11.757,9.719],[11.634,9.627],[11.614,9.656],[11.563,9.605],[11.468,9.598],[11.43,9.55],[11.444,9.488],[11.484,9.464],[11.526,9.408],[11.531,9.326],[11.599,9.302],[11.648,9.305],[11.687,9.23],[11.678,9.211],[11.703,9.161],[11.695,9.107],[11.707,9.074],[11.831,9.008],[11.872,8.947],[11.843,8.867],[11.827,8.739],[11.769,8.712],[11.743,8.678],[11.789,8.641],[11.758,8.617],[11.795,8.546],[11.73,8.471],[11.679,8.463],[11.613,8.404],[11.63,8.387],[11.546,8.246],[11.363,8.064],[11.342,8.019],[11.49,7.8],[11.514,7.816],[11.552,7.903],[11.59,7.908],[11.646,7.866],[11.649,7.791],[11.633,7.75],[11.727,7.719],[11.758,7.725],[11.773,7.652],[11.772,7.488],[11.853,7.391],[12.044,7.578],[12.025,7.661],[12.033,7.715],[12.221,7.995],[12.202,8.042],[12.202,8.107],[12.256,8.198],[12.237,8.327],[12.263,8.419],[12.296,8.434],[12.336,8.42],[12.441,8.455],[12.586,8.465],[12.603,8.493],[12.681,8.467],[12.731,8.512],[12.755,8.572],[12.826,8.565],[12.817,8.65],[12.857,8.686],[12.879,8.75],[12.881,8.846],[12.844,8.971],[12.925,8.993],[12.942,9.063],[12.898,9.348],[12.968,9.452],[13.024,9.496],[13.187,9.527],[13.219,9.543],[13.239,9.579],[13.26,9.752],[13.235,9.908],[13.275,9.938],[13.286,9.971],[13.245,10.038],[13.318,10.1],[13.41,10.12],[13.462,10.172],[13.464,10.217],[13.508,10.214],[13.517,10.257],[13.488,10.278],[13.492,10.39],[13.519,10.394],[13.561,10.644],[13.751,10.914],[13.67,10.945],[13.585,10.949],[13.383,10.878],[13.389,10.896],[13.346,10.931],[13.319,10.737],[13.258,10.612],[13.233,10.589],[13.233,10.558],[13.253,10.54],[13.248,10.508],[13.228,10.443],[13.214,10.448],[13.197,10.409],[13.052,10.464],[12.959,10.548],[12.875,10.574],[12.745,10.58],[12.652,10.439],[12.607,10.451],[12.603,10.484],[12.579,10.492],[12.558,10.446],[12.557,10.395],[12.422,10.371],[12.379,10.35],[12.387,10.317],[12.313,10.315],[12.306,10.336],[12.28,10.329],[12.257,10.36],[12.213,10.281],[12.136,10.237],[12.089,10.143],[12.103,10.093],[12.087,10.06],[12.019,10.067],[11.991,10.035],[11.921,10.025],[11.836,10.034]]]}},{"type":"Feature","properties":{"name":"Yobe","zone":"North East"},"geometry":{"type":"Polygon","coordinates":[[[12.43,13.073],[12.281,13.097],[12.259,13.118],[12.233,13.106],[12.2,13.13],[12.181,13.117],[12.09,13.122],[11.82,13.273],[11.452,13.377],[11.106,13.361],[10.735,13.387],[10.148,13.26],[9.962,13.156],[9.936,13.116],[9.909,13.112],[9.662,12.834],[9.765,12.796],[9.786,12.799],[9.787,12.814],[9.858,12.82],[9.915,12.863],[9.93,12.919],[9.943,12.911],[9.964,12.944],[10.029,12.965],[10.051,12.953],[10.057,12.974],[10.089,12.984],[10.104,12.966],[10.099,12.986],[10.224,13.015],[10.282,12.979],[10.283,12.962],[10.264,12.955],[10.305,12.861],[10.291,12.815],[10.325,12.811],[10.331,12.847],[10.385,12.841],[10.475,12.79],[10.503,12.807],[10.495,12.816],[10.538,12.824],[10.558,12.809],[10.6,12.695],[10.581,12.648],[10.596,12.617],[10.585,12.57],[10.603,12.563],[10.59,12.526],[10.651,12.529],[10.751,12.476],[10.789,12.278],[10.799,12.128],[10.827,12.096],[10.824,11.977],[10.8,11.944],[10.817,11.886],[10.878,11.829],[10.905,11.827],[10.928,11.777],[10.939,11.554],[10.91,11.331],[10.933,11.315],[10.918,11.269],[10.944,11.276],[10.926,11.251],[10.982,11.179],[11.077,11.287],[11.092,11.226],[11.182,11.199],[11.224,11.165],[11.249,11.184],[11.311,11.169],[11.319,11.186],[11.371,11.098],[11.402,11.088],[11.471,11.022],[11.53,10.935],[11.539,10.851],[11.517,10.732],[11.513,10.585],[11.528,10.568],[11.561,10.592],[11.714,10.634],[11.754,10.663],[11.767,10.723],[11.751,10.813],[11.634,10.833],[11.64,10.876],[11.722,10.896],[11.783,10.937],[11.855,10.935],[11.9,10.969],[11.908,10.939],[11.938,10.948],[12.043,11.049],[12.126,11.038],[12.153,11.05],[12.167,11.086],[12.153,11.12],[12.121,11.14],[12.103,11.248],[12.187,11.302],[12.202,11.357],[12.322,11.451],[12.374,11.55],[12.348,11.583],[12.3,11.609],[12.301,11.645],[12.275,11.694],[12.224,11.633],[12.196,11.658],[12.244,11.809],[12.27,11.826],[12.256,11.886],[12.281,11.995],[12.238,12.09],[12.236,12.137],[12.264,12.179],[12.25,12.213],[12.285,12.266],[12.285,12.315],[12.268,12.323],[12.286,12.33],[12.287,12.425],[12.353,12.46],[12.377,12.52],[12.419,12.524],[12.444,12.561],[12.428,12.602],[12.465,12.614],[12.504,12.691],[12.485,12.802],[12.409,12.86],[12.395,12.916],[12.43,13.073]]]}},{"type":"Feature","properties":{"name":"Abia","zone":"South East"},"geometry":{"type":"Polygon","coordinates":[[[7.918,5.65],[7.804,5.745],[7.786,5.805],[7.769,5.814],[7.567,5.844],[7.535,5.835],[7.503,5.9],[7.529,5.952],[7.521,6.0],[7.533,6.011],[7.52,6.02],[7.416,6.006],[7.387,6.037],[7.339,6.042],[7.318,5.999],[7.264,5.991],[7.255,5.965],[7.271,5.925],[7.396,5.908],[7.386,5.861],[7.4,5.713],[7.382,5.706],[7.41,5.674],[7.432,5.609],[7.404,5.529],[7.336,5.432],[7.292,5.328],[7.264,5.216],[7.293,5.173],[7.241,4.994],[7.218,4.962],[7.16,4.935],[7.147,4.89],[7.218,4.857],[7.32,4.88],[7.416,4.867],[7.495,4.828],[7.499,4.859],[7.477,4.908],[7.491,4.959],[7.46,4.978],[7.533,5.042],[7.519,5.053],[7.547,5.088],[7.528,5.156],[7.553,5.276],[7.535,5.304],[7.572,5.324],[7.645,5.324],[7.665,5.344],[7.661,5.367],[7.625,5.365],[7.622,5.388],[7.657,5.446],[7.7,5.432],[7.696,5.518],[7.757,5.51],[7.793,5.44],[7.865,5.418],[7.884,5.385],[7.876,5.369],[7.988,5.363],[7.908,5.536],[7.918,5.65]]]}},{"type":"Feature","properties":{"name":"Ekiti","zone":"South West"},"geometry":{"type":"Polygon","coordinates":[[[5.773,7.747],[5.792,7.782],[5.756,7.796],[5.729,7.828],[5.643,7.829],[5.614,7.866],[5.599,7.958],[5.645,7.963],[5.668,8.002],[5.64,8.054],[5.656,8.075],[5.577,8.071],[5.509,8.018],[5.514,8.111],[5.398,8.104],[5.364,8.09],[5.361,8.039],[5.332,8.01],[5.196,8.018],[5.142,8.062],[5.118,8.063],[5.084,8.024],[5.058,8.039],[5.016,7.955],[4.942,7.9],[4.911,7.85],[4.914,7.783],[4.864,7.623],[4.902,7.576],[4.948,7.455],[4.987,7.419],[5.005,7.414],[5.065,7.46],[5.217,7.434],[5.32,7.441],[5.347,7.381],[5.358,7.296],[5.388,7.283],[5.481,7.305],[5.521,7.333],[5.599,7.45],[5.625,7.582],[5.655,7.629],[5.681,7.624],[5.699,7.683],[5.773,7.747]]]}},{"type":"Feature","properties":{"name":"Osun","zone":"South West"},"geometry":{"type":"Polygon","coordinates":[[[4.61,7.031],[4.627,7.104],[4.673,7.14],[4.672,7.166],[4.709,7.165],[4.747,7.223],[4.735,7.284],[4.755,7.361],[4.878,7.379],[4.943,7.37],[5.006,7.392],[5.005,7.414],[4.948,7.455],[4.902,7.576],[4.864,7.623],[4.914,7.783],[4.911,7.85],[4.942,7.9],[5.031,7.977],[5.058,8.039],[5.04,8.072],[4.973,8.021],[4.961,8.052],[4.887,8.091],[4.854,8.096],[4.857,8.073],[4.83,8.055],[4.766,8.068],[4.666,8.043],[4.622,8.076],[4.561,8.054],[4.55,7.971],[4.45,7.938],[4.433,7.892],[4.397,7.897],[4.371,7.849],[4.328,7.935],[4.276,7.971],[4.236,7.956],[4.234,7.931],[4.191,7.91],[4.197,7.865],[4.147,7.85],[4.09,7.86],[4.061,7.754],[4.074,7.682],[4.053,7.675],[4.093,7.621],[4.139,7.599],[4.155,7.509],[4.134,7.465],[4.132,7.358],[4.111,7.327],[4.13,7.277],[4.085,7.208],[4.072,7.163],[4.085,7.151],[4.071,7.139],[4.088,7.133],[4.169,7.174],[4.198,7.049],[4.298,7.091],[4.369,7.059],[4.374,6.999],[4.39,6.981],[4.425,7.002],[4.489,6.992],[4.516,7.023],[4.61,7.031]]]}},{"type":"Feature","properties":{"name":"Bauchi","zone":"North East"},"geometry":{"type":"Polygon","coordinates":[[[10.523,9.488],[10.774,9.447],[10.917,9.555],[10.99,9.641],[10.957,9.669],[10.966,9.752],[10.982,9.775],[10.945,9.88],[10.717,10.05],[10.712,10.076],[10.738,10.121],[10.807,10.138],[10.857,10.236],[10.863,10.268],[10.819,10.313],[10.835,10.4],[10.804,10.424],[10.81,10.448],[10.791,10.435],[10.73,10.487],[10.662,10.491],[10.558,10.601],[10.563,10.642],[10.529,10.65],[10.494,10.688],[10.569,10.811],[10.652,10.881],[10.647,10.893],[10.677,10.931],[10.641,10.961],[10.643,10.977],[10.66,10.985],[10.669,11.04],[10.69,11.047],[10.708,11.085],[10.738,11.101],[10.772,11.06],[10.799,11.084],[10.93,11.091],[11.009,11.149],[10.926,11.251],[10.944,11.276],[10.917,11.271],[10.933,11.315],[10.91,11.331],[10.939,11.554],[10.928,11.777],[10.905,11.827],[10.878,11.829],[10.817,11.886],[10.8,11.944],[10.824,11.977],[10.827,12.096],[10.799,12.128],[10.789,12.278],[10.751,12.476],[10.691,12.514],[10.614,12.532],[10.591,12.518],[10.606,12.515],[10.591,12.505],[10.602,12.485],[10.558,12.467],[10.555,12.481],[10.539,12.478],[10.459,12.441],[10.394,12.465],[10.339,12.441],[10.258,12.46],[10.225,12.434],[10.254,12.391],[10.208,12.354],[10.195,12.328],[10.207,12.312],[10.148,12.238],[10.17,12.165],[10.152,12.09],[10.174,12.039],[10.125,12.014],[10.097,12.019],[10.093,11.994],[10.054,11.978],[10.02,11.984],[9.889,11.937],[9.834,11.89],[9.708,11.85],[9.683,11.867],[9.67,11.784],[9.641,11.779],[9.62,11.754],[9.64,11.733],[9.704,11.721],[9.78,11.737],[9.802,11.691],[9.828,11.692],[9.828,11.635],[9.811,11.625],[9.835,11.599],[9.82,11.58],[9.831,11.54],[9.788,11.505],[9.785,11.468],[9.801,11.443],[9.856,11.466],[9.875,11.453],[9.883,11.359],[9.918,11.347],[9.913,11.316],[9.941,11.314],[9.958,11.286],[10.012,11.261],[10.084,11.27],[10.12,11.237],[10.176,11.224],[10.235,11.224],[10.279,11.203],[10.366,11.206],[10.334,11.118],[10.314,11.131],[10.27,11.088],[10.248,11.079],[10.21,11.092],[10.169,11.058],[10.156,11.006],[10.204,10.975],[10.22,10.947],[10.134,10.948],[10.111,10.963],[10.112,10.992],[10.046,10.966],[10.01,10.97],[10.006,10.956],[9.929,10.992],[9.869,11.0],[9.853,11.066],[9.889,11.094],[9.881,11.196],[9.861,11.198],[9.825,11.28],[9.678,11.221],[9.596,11.248],[9.609,11.315],[9.526,11.316],[9.498,11.278],[9.464,11.282],[9.346,11.347],[9.304,11.338],[9.287,11.349],[9.195,11.327],[9.175,11.306],[9.13,11.329],[9.102,11.307],[9.085,11.315],[9.027,11.277],[8.996,11.227],[8.92,11.177],[8.893,11.117],[8.856,11.098],[8.805,11.104],[8.813,11.092],[8.802,11.074],[8.793,11.083],[8.78,11.012],[8.789,10.942],[8.767,10.942],[8.745,10.859],[8.766,10.851],[8.786,10.797],[8.822,10.769],[8.855,10.707],[8.782,10.601],[8.793,10.565],[8.777,10.479],[8.749,10.441],[8.782,10.424],[8.81,10.381],[8.926,10.354],[8.946,10.328],[8.954,10.289],[8.936,10.267],[8.93,10.215],[8.978,10.181],[8.939,10.027],[8.977,9.987],[9.003,9.989],[9.004,10.032],[9.059,10.018],[9.124,10.058],[9.183,10.038],[9.23,10.048],[9.255,10.03],[9.214,10.018],[9.232,9.862],[9.271,9.842],[9.219,9.773],[9.15,9.748],[9.217,9.684],[9.267,9.68],[9.285,9.698],[9.29,9.614],[9.327,9.596],[9.309,9.599],[9.304,9.572],[9.351,9.532],[9.397,9.531],[9.425,9.477],[9.569,9.473],[9.59,9.512],[9.57,9.529],[9.579,9.552],[9.651,9.522],[9.668,9.535],[9.692,9.522],[9.746,9.531],[9.831,9.599],[9.936,9.605],[9.981,9.623],[9.992,9.646],[9.973,9.7],[9.996,9.718],[10.068,9.731],[10.103,9.72],[10.109,9.691],[10.143,9.692],[10.152,9.679],[10.261,9.687],[10.373,9.603],[10.489,9.553],[10.523,9.488]]]}},{"type":"Feature","properties":{"name":"Niger","zone":"North Central"},"geometry":{"type":"Polygon","coordinates":[[[7.379,9.336],[7.232,9.318],[7.201,9.46],[7.251,9.521],[7.234,9.565],[7.306,9.628],[7.276,9.69],[7.205,9.758],[7.224,9.788],[7.274,9.783],[7.291,9.8],[7.278,10.016],[7.232,10.043],[7.189,10.027],[7.105,10.027],[7.065,10.043],[6.952,10.048],[6.901,10.076],[6.882,10.117],[6.885,10.151],[6.915,10.189],[6.942,10.181],[6.97,10.233],[7.008,10.242],[7.051,10.317],[7.02,10.354],[6.926,10.37],[6.954,10.482],[6.919,10.531],[6.869,10.555],[6.84,10.532],[6.829,10.625],[6.803,10.643],[6.72,10.644],[6.726,10.589],[6.647,10.593],[6.549,10.545],[6.525,10.564],[6.524,10.595],[6.495,10.616],[6.397,10.573],[6.383,10.54],[6.315,10.48],[6.322,10.444],[6.297,10.418],[6.254,10.427],[6.236,10.385],[6.217,10.389],[6.17,10.358],[6.177,10.386],[6.161,10.418],[6.175,10.442],[6.158,10.501],[6.092,10.522],[6.094,10.546],[6.126,10.557],[6.134,10.59],[6.115,10.607],[6.141,10.673],[6.112,10.7],[6.093,10.699],[6.117,10.74],[6.102,10.775],[6.113,10.814],[6.136,10.825],[6.123,10.845],[6.161,10.854],[6.165,10.893],[6.218,10.905],[6.267,10.966],[6.163,11.043],[6.113,11.061],[6.046,11.054],[6.016,11.138],[5.978,11.167],[5.915,11.145],[5.892,11.111],[5.8,11.083],[5.729,10.998],[5.636,10.965],[5.578,10.969],[5.556,10.947],[5.522,10.99],[5.501,10.975],[5.447,10.983],[5.389,11.037],[5.394,11.118],[5.413,11.121],[5.39,11.173],[5.389,11.231],[5.333,11.356],[5.25,11.309],[5.233,11.218],[5.071,11.238],[5.053,11.205],[5.058,11.27],[5.012,11.252],[4.966,11.362],[4.898,11.391],[4.879,11.355],[4.712,11.297],[4.704,11.268],[4.739,11.251],[4.703,11.229],[4.746,11.148],[4.803,11.114],[4.84,11.114],[4.909,11.082],[4.98,11.081],[4.996,11.054],[5.041,11.052],[5.082,10.927],[5.025,10.89],[5.029,10.859],[5.047,10.825],[5.109,10.796],[5.101,10.761],[5.055,10.738],[5.027,10.75],[5.012,10.724],[4.955,10.706],[4.947,10.69],[4.908,10.69],[4.894,10.707],[4.81,10.698],[4.796,10.629],[4.824,10.595],[4.819,10.507],[4.853,10.46],[4.932,10.44],[4.95,10.39],[4.947,10.285],[4.872,10.218],[4.794,10.261],[4.669,10.226],[4.671,10.212],[4.647,10.205],[4.625,10.103],[4.53,10.101],[4.527,10.143],[4.569,10.246],[4.542,10.287],[4.483,10.329],[4.479,10.421],[4.51,10.535],[4.601,10.571],[4.691,10.663],[4.698,10.801],[4.723,10.867],[4.695,10.919],[4.615,10.888],[4.54,10.92],[4.45,10.886],[4.381,10.88],[4.339,10.903],[4.33,10.951],[4.277,10.954],[4.257,10.99],[4.267,11.025],[4.1,11.026],[3.993,11.016],[3.933,10.943],[3.802,10.946],[3.77,10.92],[3.749,10.803],[3.849,10.683],[3.855,10.585],[3.794,10.406],[3.684,10.448],[3.637,10.412],[3.582,10.275],[3.644,10.199],[3.681,10.181],[3.731,10.068],[3.743,10.084],[3.784,10.031],[3.785,10.062],[3.818,10.067],[3.903,10.019],[3.89,10.016],[3.887,9.988],[3.949,9.991],[3.935,9.967],[3.971,9.949],[3.936,9.916],[3.985,9.893],[4.002,9.907],[4.022,9.857],[4.083,9.852],[4.095,9.878],[4.115,9.882],[4.119,9.856],[4.153,9.862],[4.351,9.588],[4.501,9.44],[4.61,9.362],[4.639,9.308],[4.738,9.269],[4.755,9.248],[4.752,9.18],[4.785,9.135],[4.828,9.134],[4.972,9.201],[5.016,9.205],[5.159,9.107],[5.209,9.035],[5.525,8.94],[5.642,8.835],[5.728,8.82],[5.796,8.742],[6.084,8.761],[6.132,8.752],[6.15,8.721],[6.247,8.739],[6.303,8.728],[6.359,8.685],[6.398,8.629],[6.453,8.448],[6.608,8.314],[6.691,8.183],[6.713,8.202],[6.72,8.275],[6.761,8.273],[6.751,8.305],[6.767,8.309],[6.772,8.335],[6.807,8.343],[6.838,8.397],[6.825,8.404],[6.828,8.458],[6.785,8.458],[6.788,9.27],[7.015,9.269],[7.22,9.114],[7.379,9.336]]]}},{"type":"Feature","properties":{"name":"Kaduna","zone":"North West"},"geometry":{"type":"Polygon","coordinates":[[[7.647,9.409],[7.793,9.276],[7.873,9.29],[7.919,9.317],[8.061,9.266],[8.087,9.231],[8.062,9.052],[8.138,9.036],[8.192,9.052],[8.233,9.105],[8.258,9.183],[8.328,9.181],[8.343,9.194],[8.387,9.176],[8.447,9.113],[8.514,9.001],[8.576,9.034],[8.567,9.061],[8.621,9.115],[8.698,9.321],[8.695,9.378],[8.638,9.407],[8.603,9.483],[8.578,9.499],[8.554,9.569],[8.58,9.673],[8.599,9.679],[8.599,9.728],[8.644,9.775],[8.635,9.867],[8.68,10.005],[8.672,10.146],[8.686,10.211],[8.729,10.248],[8.734,10.275],[8.799,10.303],[8.818,10.38],[8.749,10.441],[8.777,10.479],[8.793,10.565],[8.779,10.598],[8.711,10.543],[8.644,10.63],[8.594,10.645],[8.535,10.633],[8.506,10.65],[8.481,10.716],[8.572,10.748],[8.559,10.789],[8.585,10.861],[8.568,10.907],[8.615,11.018],[8.607,11.071],[8.52,11.115],[8.506,11.132],[8.519,11.162],[8.465,11.17],[8.434,11.227],[8.298,11.234],[8.286,11.268],[8.257,11.28],[8.264,11.313],[8.237,11.327],[8.207,11.319],[8.123,11.387],[8.114,11.408],[8.143,11.42],[8.14,11.457],[8.162,11.497],[8.15,11.519],[8.102,11.524],[8.047,11.486],[7.996,11.492],[7.968,11.479],[7.894,11.427],[7.879,11.386],[7.856,11.378],[7.798,11.377],[7.789,11.36],[7.769,11.379],[7.72,11.37],[7.716,11.318],[7.608,11.272],[7.574,11.319],[7.522,11.34],[7.52,11.362],[7.489,11.352],[7.468,11.378],[7.398,11.378],[7.37,11.333],[7.358,11.264],[7.29,11.284],[7.227,11.279],[7.195,11.258],[7.22,11.194],[7.2,11.152],[7.152,11.129],[7.069,11.203],[7.025,11.21],[6.968,11.245],[7.009,11.294],[7.006,11.362],[6.961,11.359],[6.919,11.385],[6.889,11.384],[6.833,11.352],[6.836,11.31],[6.774,11.322],[6.764,11.267],[6.703,11.239],[6.685,11.152],[6.691,11.121],[6.716,11.106],[6.687,11.092],[6.677,11.057],[6.603,11.046],[6.577,11.022],[6.533,11.048],[6.511,11.044],[6.437,11.008],[6.404,11.033],[6.365,11.018],[6.329,11.027],[6.28,10.964],[6.237,10.945],[6.218,10.905],[6.165,10.893],[6.163,10.856],[6.123,10.845],[6.136,10.825],[6.113,10.814],[6.102,10.775],[6.117,10.74],[6.093,10.699],[6.112,10.7],[6.141,10.673],[6.115,10.607],[6.134,10.59],[6.126,10.557],[6.094,10.546],[6.092,10.522],[6.158,10.501],[6.175,10.442],[6.161,10.418],[6.177,10.386],[6.17,10.358],[6.217,10.389],[6.236,10.385],[6.254,10.427],[6.297,10.418],[6.322,10.444],[6.315,10.48],[6.327,10.495],[6.383,10.54],[6.397,10.573],[6.436,10.591],[6.495,10.616],[6.524,10.595],[6.525,10.564],[6.549,10.545],[6.647,10.593],[6.726,10.589],[6.72,10.644],[6.817,10.638],[6.842,10.573],[6.84,10.532],[6.869,10.555],[6.913,10.538],[6.954,10.482],[6.926,10.37],[7.02,10.354],[7.051,10.317],[7.008,10.242],[6.982,10.244],[6.954,10.192],[6.942,10.181],[6.915,10.189],[6.885,10.151],[6.882,10.117],[6.901,10.076],[6.952,10.048],[7.065,10.043],[7.105,10.027],[7.189,10.027],[7.232,10.043],[7.278,10.016],[7.291,9.8],[7.274,9.783],[7.224,9.788],[7.205,9.758],[7.276,9.69],[7.306,9.628],[7.234,9.565],[7.251,9.521],[7.201,9.46],[7.232,9.318],[7.509,9.355],[7.542,9.387],[7.647,9.409]]]}},{"type":"Feature","properties":{"name":"Enugu","zone":"South East"},"geometry":{"type":"Polygon","coordinates":[[[6.861,6.753],[6.91,6.696],[6.991,6.713],[7.129,6.659],[7.109,6.593],[7.055,6.545],[7.032,6.442],[7.089,6.426],[7.144,6.388],[7.162,6.316],[7.143,6.289],[7.143,6.236],[7.2,6.235],[7.224,6.191],[7.229,6.128],[7.261,6.079],[7.309,6.079],[7.304,6.045],[7.387,6.037],[7.416,6.006],[7.52,6.02],[7.573,5.969],[7.664,5.93],[7.705,5.929],[7.711,5.971],[7.664,6.047],[7.714,6.084],[7.726,6.115],[7.733,6.227],[7.708,6.298],[7.751,6.386],[7.726,6.56],[7.704,6.578],[7.688,6.629],[7.72,6.647],[7.818,6.638],[7.878,6.76],[7.903,6.781],[7.886,6.794],[7.888,6.854],[7.864,6.88],[7.792,6.889],[7.786,6.873],[7.75,6.878],[7.675,6.856],[7.62,6.919],[7.571,6.94],[7.502,7.069],[7.432,7.102],[7.387,7.086],[7.37,7.041],[7.241,6.971],[7.239,6.941],[7.21,6.904],[7.156,6.883],[7.081,6.8],[7.042,6.783],[6.991,6.785],[6.978,6.85],[6.945,6.799],[6.93,6.786],[6.912,6.801],[6.861,6.753]]]}},{"type":"Feature","properties":{"name":"Taraba","zone":"North East"},"geometry":{"type":"Polygon","coordinates":[[[9.598,6.5],[9.638,6.523],[9.709,6.521],[9.796,6.802],[9.875,6.776],[10.165,7.021],[10.195,6.918],[10.238,6.878],[10.513,6.878],[10.56,7.022],[10.615,7.069],[10.767,6.956],[10.779,6.967],[10.845,6.957],[10.879,6.878],[10.883,6.828],[10.943,6.778],[11.019,6.779],[11.071,6.719],[11.082,6.698],[11.06,6.643],[11.062,6.596],[11.117,6.444],[11.141,6.434],[11.34,6.441],[11.413,6.484],[11.437,6.591],[11.511,6.602],[11.558,6.658],[11.589,6.78],[11.555,6.821],[11.587,6.892],[11.638,6.944],[11.763,7.003],[11.864,7.085],[11.882,7.132],[11.795,7.25],[11.75,7.265],[11.799,7.297],[11.853,7.391],[11.772,7.488],[11.773,7.652],[11.758,7.725],[11.727,7.719],[11.633,7.75],[11.651,7.857],[11.59,7.908],[11.541,7.892],[11.514,7.816],[11.49,7.8],[11.342,8.019],[11.363,8.064],[11.546,8.246],[11.63,8.387],[11.613,8.404],[11.638,8.414],[11.648,8.442],[11.73,8.471],[11.786,8.522],[11.793,8.564],[11.758,8.617],[11.789,8.641],[11.743,8.678],[11.769,8.712],[11.827,8.739],[11.843,8.867],[11.874,8.938],[11.831,9.008],[11.707,9.074],[11.695,9.107],[11.703,9.161],[11.678,9.211],[11.687,9.23],[11.648,9.305],[11.599,9.302],[11.531,9.326],[11.526,9.408],[11.484,9.464],[11.444,9.488],[11.43,9.55],[11.278,9.548],[11.222,9.569],[11.114,9.526],[11.076,9.551],[10.992,9.559],[10.969,9.615],[10.917,9.555],[10.774,9.447],[10.541,9.484],[10.579,9.439],[10.56,9.351],[10.58,9.327],[10.58,9.246],[10.614,9.183],[10.614,9.149],[10.636,9.127],[10.623,9.094],[10.637,9.056],[10.597,8.976],[10.464,8.963],[10.407,8.935],[10.249,8.808],[10.052,8.592],[9.869,8.431],[9.757,8.367],[9.62,8.383],[9.61,8.291],[9.483,8.306],[9.39,8.349],[9.363,8.341],[9.323,8.253],[9.412,8.177],[9.387,8.149],[9.415,8.062],[9.336,7.986],[9.179,7.908],[9.182,7.892],[9.124,7.827],[9.12,7.793],[9.387,7.845],[9.602,7.83],[9.643,7.8],[9.747,7.655],[9.846,7.574],[9.885,7.508],[9.883,7.414],[9.825,7.255],[9.835,7.199],[9.738,7.078],[9.646,6.895],[9.646,6.739],[9.598,6.5]]]}},{"type":"Feature","properties":{"name":"Ebonyi","zone":"South East"},"geometry":{"type":"Polygon","coordinates":[[[8.322,6.634],[8.286,6.71],[8.252,6.736],[8.266,6.742],[8.229,6.8],[8.22,6.779],[8.173,6.773],[8.128,6.712],[8.099,6.707],[8.02,6.733],[7.984,6.72],[7.975,6.69],[7.987,6.611],[7.959,6.591],[7.945,6.54],[7.856,6.581],[7.832,6.638],[7.691,6.638],[7.704,6.578],[7.726,6.56],[7.75,6.437],[7.751,6.386],[7.708,6.298],[7.733,6.227],[7.726,6.115],[7.714,6.084],[7.664,6.047],[7.715,5.946],[7.692,5.925],[7.664,5.93],[7.521,6.0],[7.529,5.952],[7.503,5.9],[7.535,5.835],[7.567,5.844],[7.769,5.814],[7.786,5.805],[7.804,5.745],[7.89,5.685],[7.922,5.76],[7.97,5.768],[7.932,5.83],[7.959,5.843],[7.989,5.902],[8.005,5.9],[7.982,5.927],[7.986,5.982],[8.041,5.998],[8.05,5.951],[8.101,5.961],[8.114,5.938],[8.215,6.012],[8.282,6.005],[8.302,6.108],[8.401,6.217],[8.418,6.261],[8.392,6.307],[8.404,6.366],[8.445,6.386],[8.457,6.418],[8.432,6.433],[8.423,6.478],[8.409,6.478],[8.419,6.515],[8.391,6.523],[8.391,6.55],[8.375,6.546],[8.374,6.564],[8.325,6.589],[8.322,6.634]]]}}]}